NORAD_CAT_ID,OBJECT_NAME,OBJECT_TYPE,EPOCH,MEAN_MOTION,ECCENTRICITY,INCLINATION,RA_OF_ASC_NODE,ARG_OF_PERICENTER,MEAN_ANOMALY,BSTAR,MEAN_MOTION_DOT,MEAN_MOTION_DDOT,TLE_LINE0,TLE_LINE1,TLE_LINE2,SEMIMAJOR_AXIS,PERIOD,APOGEE,PERIGEE,DECAYED
55765.0,STARLINK-5595,PAYLOAD,2023-12-30 14:25:41,14.98333081,0.0002179,70.0035,81.9309,231.7918,128.3045,-0.00010249,-1.316e-05,0.0,0 STARLINK-5595,1 55765U 23028AA  23364.60117853 -.00001316  00000-0 -10249-3 0  9994,2 55765  70.0035  81.9309 0002179 231.7918 128.3045 14.98333081 46682,6950.183,96.107,573.563,570.534,0.0
55765.0,STARLINK-5595,PAYLOAD,2023-12-31 14:27:42,14.98326885,0.0002499,70.0016,79.4027,250.1804,109.9086,-0.00013289,-1.678e-05,0.0,0 STARLINK-5595,1 55765U 23028AA  23365.60257917 -.00001678  00000-0 -13289-3 0  9999,2 55765  70.0016  79.4027 0002499 250.1804 109.9086 14.98326885 46824,6950.203,96.107,573.804,570.331,0.0
55765.0,STARLINK-5595,PAYLOAD,2024-01-01 11:17:27,14.9832869,0.0002683,70.0015,77.2157,248.5356,111.5517,1.512e-05,8.7e-07,0.0,0 STARLINK-5595,1 55765U 23028AA  24001.47045384  .00000087  00000-0  15120-4 0  9993,2 55765  70.0015  77.2157 0002683 248.5356 111.5517 14.98328690 46959,6950.197,96.107,573.927,570.197,0.0
55765.0,STARLINK-5595,PAYLOAD,2024-01-01 14:29:43,14.98329802,0.000286,70.001,76.8783,261.1007,98.9829,8.2627e-06,6e-08,0.0,0 STARLINK-5595,1 55765U 23028AA  24001.60397352  .00000006  00000-0  82627-5 0  9991,2 55765  70.0010  76.8783 0002860 261.1007  98.9829 14.98329802 46988,6950.194,96.107,574.046,570.071,0.0
55765.0,STARLINK-5595,PAYLOAD,2024-01-02 11:19:27,14.98329512,0.000299,70.0002,74.6885,265.2787,94.803,6.7389e-05,7.11e-06,0.0,0 STARLINK-5595,1 55765U 23028AA  24002.47185086  .00000711  00000-0  67389-4 0  9996,2 55765  70.0002  74.6885 0002990 265.2787  94.8030 14.98329512 47104,6950.194,96.107,574.138,569.981,0.0
55765.0,STARLINK-5595,PAYLOAD,2024-01-02 14:31:43,14.98330904,0.0002965,70.0004,74.3521,264.6002,95.4819,8.0868e-05,8.72e-06,0.0,0 STARLINK-5595,1 55765U 23028AA  24002.60536948  .00000872  00000-0  80868-4 0  9993,2 55765  70.0004  74.3521 0002965 264.6002  95.4819 14.98330904 47137,6950.19,96.107,574.116,569.994,0.0
55765.0,STARLINK-5595,PAYLOAD,2024-01-03 11:21:29,14.98326379,0.0002791,70.0008,72.1653,257.5136,102.5711,-4.1405e-05,-5.87e-06,0.0,0 STARLINK-5595,1 55765U 23028AA  24003.47325626 -.00000587  00000-0 -41405-4 0  9997,2 55765  70.0008  72.1653 0002791 257.5136 102.5711 14.98326379 47254,6950.204,96.107,574.009,570.129,0.0
55765.0,STARLINK-5595,PAYLOAD,2024-01-03 14:33:45,14.98326091,0.0002784,70.0008,71.8284,257.6561,102.4286,-4.2774e-05,-6.03e-06,0.0,0 STARLINK-5595,1 55765U 23028AA  24003.60677669 -.00000603  00000-0 -42774-4 0  9998,2 55765  70.0008  71.8284 0002784 257.6561 102.4286 14.98326091 47285,6950.205,96.107,574.005,570.135,0.0
55765.0,STARLINK-5595,PAYLOAD,2024-01-04 11:23:29,14.9833371,0.0002783,70.0005,69.6394,260.8327,99.2517,1.2396e-05,5.5e-07,0.0,0 STARLINK-5595,1 55765U 23028AA  24004.47464946  .00000055  00000-0  12396-4 0  9992,2 55765  70.0005  69.6394 0002783 260.8327  99.2517 14.98333710 47404,6950.181,96.107,573.981,570.112,0.0
55765.0,STARLINK-5595,PAYLOAD,2024-01-04 14:35:45,14.98334062,0.0002787,70.0005,69.3027,262.0232,98.061,1.5981e-05,9.8e-07,0.0,0 STARLINK-5595,1 55765U 23028AA  24004.60816887  .00000098  00000-0  15981-4 0  9992,2 55765  70.0005  69.3027 0002787 262.0232  98.0610 14.98334062 47432,6950.18,96.107,573.982,570.108,0.0
55765.0,STARLINK-5595,PAYLOAD,2024-01-05 05:00:58,14.98324615,0.0002714,70.0005,67.7868,262.179,97.9061,1.9242e-05,1.37e-06,0.0,0 STARLINK-5595,1 55765U 23028AA  24005.20901464  .00000137  00000-0  19242-4 0  9993,2 55765  70.0005  67.7868 0002714 262.1790  97.9061 14.98324615 47517,6950.21,96.107,573.961,570.188,0.0
55765.0,STARLINK-5595,PAYLOAD,2024-01-05 14:37:47,14.98324485,0.0002791,70.0003,66.7769,264.3362,95.7479,7.3043e-06,-6e-08,0.0,0 STARLINK-5595,1 55765U 23028AA  24005.60957641 -.00000006  00000-0  73043-5 0  9991,2 55765  70.0003  66.7769 0002791 264.3362  95.7479 14.98324485 47589,6950.21,96.107,574.015,570.135,0.0
55765.0,STARLINK-5595,PAYLOAD,2024-01-06 05:02:59,14.98333478,0.0002856,70.0001,65.262,265.2188,94.8644,-1.5481e-05,-2.78e-06,0.0,0 STARLINK-5595,1 55765U 23028AA  24006.21041130 -.00000278  00000-0 -15481-4 0  9999,2 55765  70.0001  65.2620 0002856 265.2188  94.8644 14.98333478 47660,6950.182,96.107,574.032,570.062,0.0
55765.0,STARLINK-5595,PAYLOAD,2024-01-06 11:27:31,14.98333697,0.0002899,69.9999,64.5885,264.4918,95.591,6.4135e-06,-1.6e-07,0.0,0 STARLINK-5595,1 55765U 23028AA  24006.47744992 -.00000016  00000-0  64135-5 0  9993,2 55765  69.9999  64.5885 0002899 264.4918  95.5910 14.98333697 47710,6950.181,96.107,574.061,570.032,0.0
55765.0,STARLINK-5595,PAYLOAD,2024-01-06 13:03:39,14.98334074,0.0002843,70.0001,64.4204,264.3609,95.7226,-4.1641e-06,-1.43e-06,0.0,0 STARLINK-5595,1 55765U 23028AA  24006.54420985 -.00000143  00000-0 -41641-5 0  9993,2 55765  70.0001  64.4204 0002843 264.3609  95.7226 14.98334074 47729,6950.18,96.107,574.021,570.069,0.0
55765.0,STARLINK-5595,PAYLOAD,2024-01-07 11:29:32,14.98328608,0.0002896,69.9999,62.0639,265.384,94.6988,3.8953e-05,3.72e-06,0.0,0 STARLINK-5595,1 55765U 23028AA  24007.47885136  .00000372  00000-0  38953-4 0  9992,2 55765  69.9999  62.0639 0002896 265.3840  94.6988 14.98328608 47857,6950.197,96.107,574.075,570.049,0.0
55765.0,STARLINK-5595,PAYLOAD,2024-01-07 13:05:40,14.98328516,0.0002909,69.9999,61.8955,266.0496,94.0331,3.6142e-05,3.38e-06,0.0,0 STARLINK-5595,1 55765U 23028AA  24007.54561155  .00000338  00000-0  36142-4 0  9992,2 55765  69.9999  61.8955 0002909 266.0496  94.0331 14.98328516 47871,6950.197,96.107,574.084,570.041,0.0
55765.0,STARLINK-5595,PAYLOAD,2024-01-08 11:31:33,14.98332758,0.0002831,70.0,59.5388,262.8,97.2837,7.464e-06,-4e-08,0.0,0 STARLINK-5595,1 55765U 23028AA  24008.48024853 -.00000004  00000-0  74640-5 0  9992,2 55765  70.0000  59.5388 0002831 262.8000  97.2837 14.98332758 48005,6950.184,96.107,574.017,570.082,0.0
55765.0,STARLINK-5595,PAYLOAD,2024-01-08 13:07:41,14.98333172,0.0002823,70.0001,59.3706,262.5301,97.5538,1.2614e-05,5.8e-07,0.0,0 STARLINK-5595,1 55765U 23028AA  24008.54700800  .00000058  00000-0  12614-4 0  9992,2 55765  70.0001  59.3706 0002823 262.5301  97.5538 14.98333172 48024,6950.183,96.107,574.01,570.086,0.0
55765.0,STARLINK-5595,PAYLOAD,2024-01-09 11:33:34,14.98332156,0.000276,70.0001,57.0132,262.7155,97.369,3.1997e-05,2.89e-06,0.0,0 STARLINK-5595,1 55765U 23028AA  24009.48164680  .00000289  00000-0  31997-4 0  9997,2 55765  70.0001  57.0132 0002760 262.7155  97.3690 14.98332156 48153,6950.186,96.107,573.969,570.133,0.0
55765.0,STARLINK-5595,PAYLOAD,2024-01-09 13:09:42,14.98332429,0.0002763,70.0001,56.8449,263.0441,97.0403,3.3982e-05,3.13e-06,0.0,0 STARLINK-5595,1 55765U 23028AA  24009.54840649  .00000313  00000-0  33982-4 0  9994,2 55765  70.0001  56.8449 0002763 263.0441  97.0403 14.98332429 48170,6950.185,96.107,573.971,570.13,0.0
55765.0,STARLINK-5595,PAYLOAD,2024-01-10 11:35:35,14.9832939,0.0002624,70.0003,54.4879,261.3279,98.7582,-9.2688e-06,-2.04e-06,0.0,0 STARLINK-5595,1 55765U 23028AA  24010.48304876 -.00000204  00000-0 -92688-5 0  9996,2 55765  70.0003  54.4879 0002624 261.3279  98.7582 14.98329390 48303,6950.195,96.107,573.884,570.236,0.0
55765.0,STARLINK-5595,PAYLOAD,2024-01-11 11:37:36,14.98330493,0.0002559,70.0003,51.9629,265.2144,94.8723,1.0925e-05,3.7e-07,0.0,0 STARLINK-5595,1 55765U 23028AA  24011.48444728  .00000037  00000-0  10925-4 0  9993,2 55765  70.0003  51.9629 0002559 265.2144  94.8723 14.98330493 48455,6950.191,96.107,573.835,570.278,0.0
55765.0,STARLINK-5595,PAYLOAD,2024-01-12 11:39:37,14.98326717,0.0002518,70.0005,49.4383,264.0913,95.9959,-8.9923e-06,-2e-06,0.0,0 STARLINK-5595,1 55765U 23028AA  24012.48585065 -.00000200  00000-0 -89923-5 0  9993,2 55765  70.0005  49.4383 0002518 264.0913  95.9959 14.98326717 48606,6950.203,96.107,573.818,570.318,0.0
55765.0,STARLINK-5595,PAYLOAD,2024-01-13 11:41:38,14.98329793,0.0002619,70.0003,46.9131,262.9158,97.1703,1.0316e-05,3e-07,0.0,0 STARLINK-5595,1 55765U 23028AA  24013.48724797  .00000030  00000-0  10316-4 0  9999,2 55765  70.0003  46.9131 0002619 262.9158  97.1703 14.98329793 48751,6950.194,96.107,573.879,570.238,0.0
55765.0,STARLINK-5595,PAYLOAD,2024-01-14 11:43:39,14.98329602,0.000271,70.0003,44.3885,264.3949,95.6901,2.4762e-05,2.03e-06,0.0,0 STARLINK-5595,1 55765U 23028AA  24014.48864760  .00000203  00000-0  24762-4 0  9997,2 55765  70.0003  44.3885 0002710 264.3949  95.6901 14.98329602 48904,6950.194,96.107,573.943,570.176,0.0
55765.0,STARLINK-5595,PAYLOAD,2024-01-15 11:45:39,14.98333071,0.0002653,70.0004,41.8638,263.2022,96.8835,3.1334e-05,2.81e-06,0.0,0 STARLINK-5595,1 55765U 23028AA  24015.49004432  .00000281  00000-0  31334-4 0  9990,2 55765  70.0004  41.8638 0002653 263.2022  96.8835 14.98333071 49050,6950.183,96.107,573.892,570.205,0.0
55765.0,STARLINK-5595,PAYLOAD,2024-01-16 11:47:41,14.98324003,0.0002609,70.0006,39.3398,260.9073,99.1791,-5.6532e-05,-7.67e-06,0.0,0 STARLINK-5595,1 55765U 23028AA  24016.49145311 -.00000767  00000-0 -56532-4 0  9991,2 55765  70.0006  39.3398 0002609 260.9073  99.1791 14.98324003 49207,6950.211,96.107,573.89,570.263,0.0
55765.0,STARLINK-5595,PAYLOAD,2024-01-17 03:49:01,14.98332034,0.0002726,70.0002,37.655,267.2119,92.8728,-1.2682e-05,-2.44e-06,0.0,0 STARLINK-5595,1 55765U 23028AA  24017.15904731 -.00000244  00000-0 -12682-4 0  9992,2 55765  70.0002  37.6550 0002726 267.2119  92.8728 14.98332034 49309,6950.187,96.107,573.946,570.157,0.0
55765.0,STARLINK-5595,PAYLOAD,2024-01-17 10:13:33,14.98337513,0.0002648,70.0004,36.9818,266.2772,93.8084,5.537e-05,5.68e-06,0.0,0 STARLINK-5595,1 55765U 23028AA  24017.42608142  .00000568  00000-0  55370-4 0  9997,2 55765  70.0004  36.9818 0002648 266.2772  93.8084 14.98337513 49344,6950.17,96.107,573.875,570.194,0.0
